{"type":"FeatureCollection","features":[{"type":"Feature","id":0,"properties":{"id":"arunachal_pradesh","name":"Arunachal Pradesh","zone":"NE","n_cells":159,"label_lon":94.875,"label_lat":28.25},"geometry":{"type":"Polygon","coordinates":[[[91.875,26.875],[91.875,27.375],[91.625,27.375],[91.625,27.625],[91.375,27.625],[91.375,28.125],[92.375,28.125],[92.375,28.375],[92.875,28.375],[92.875,28.625],[93.125,28.625],[93.125,28.875],[93.875,28.875],[93.875,29.375],[94.375,29.375],[94.375,29.625],[94.625,29.625],[94.625,29.375],[95.375,29.375],[95.375,29.625],[96.375,29.625],[96.375,29.375],[96.625,29.375],[96.625,28.625],[97.125,28.625],[97.125,28.375],[97.375,28.375],[97.375,27.875],[97.125,27.875],[97.125,27.125],[96.625,27.125],[96.625,27.375],[96.125,27.375],[96.125,27.125],[95.875,27.125],[95.875,26.875],[95.375,26.875],[95.375,26.625],[95.125,26.625],[95.125,27.125],[95.375,27.125],[95.375,27.375],[95.875,27.375],[95.875,27.875],[94.875,27.875],[94.875,27.625],[94.125,27.625],[94.125,27.375],[93.875,27.375],[93.875,27.125],[93.625,27.125],[93.625,26.875],[92.875,26.875],[92.875,27.125],[92.625,27.125],[92.625,26.875],[91.875,26.875]]]}},{"type":"Feature","id":1,"properties":{"id":"assam_meghalaya","name":"Assam & Meghalaya","zone":"NE","n_cells":161,"label_lon":91.75,"label_lat":26.0},"geometry":{"type":"Polygon","coordinates":[[[90.125,25.375],[89.625,25.375],[89.625,26.125],[89.875,26.125],[89.875,27.125],[91.875,27.125],[91.875,26.875],[92.625,26.875],[92.625,27.125],[92.875,27.125],[92.875,26.875],[93.625,26.875],[93.625,27.125],[93.875,27.125],[93.875,27.375],[94.125,27.375],[94.125,27.625],[94.875,27.625],[94.875,27.875],[95.875,27.875],[95.875,27.375],[95.375,27.375],[95.375,27.125],[95.125,27.125],[95.125,26.875],[94.625,26.875],[94.625,26.625],[94.375,26.625],[94.375,26.375],[94.125,26.375],[94.125,26.125],[93.875,26.125],[93.875,25.875],[93.625,25.875],[93.625,25.625],[93.375,25.625],[93.375,24.875],[93.125,24.875],[93.125,24.375],[92.625,24.375],[92.625,24.125],[92.375,24.125],[92.375,24.375],[92.125,24.375],[92.125,25.125],[90.125,25.125],[90.125,25.375]]]}},{"type":"Feature","id":2,"properties":{"id":"nmmt","name":"Nagaland, Manipur, Mizoram & Tripura","zone":"NE","n_cells":112,"label_lon":93.75,"label_lat":24.5},"geometry":{"type":"Polygon","coordinates":[[[92.375,22.125],[92.375,23.125],[92.125,23.125],[92.125,23.625],[91.875,23.625],[91.875,23.125],[91.625,23.125],[91.625,22.875],[91.375,22.875],[91.375,23.125],[91.125,23.125],[91.125,23.625],[90.875,23.625],[90.875,23.875],[91.125,23.875],[91.125,24.375],[91.625,24.375],[91.625,24.625],[92.125,24.625],[92.125,24.375],[92.375,24.375],[92.375,24.125],[92.625,24.125],[92.625,24.375],[93.125,24.375],[93.125,24.875],[93.375,24.875],[93.375,25.625],[93.625,25.625],[93.625,25.875],[93.875,25.875],[93.875,26.125],[94.125,26.125],[94.125,26.375],[94.375,26.375],[94.375,26.625],[94.625,26.625],[94.625,26.875],[95.125,26.875],[95.125,25.625],[94.625,25.625],[94.625,24.625],[94.375,24.625],[94.375,24.125],[94.125,24.125],[94.125,23.875],[93.375,23.875],[93.375,23.125],[93.125,23.125],[93.125,21.875],[92.875,21.875],[92.875,22.125],[92.375,22.125]]]}},{"type":"Feature","id":3,"properties":{"id":"shwb_sikkim","name":"Sub-Himalayan West Bengal & Sikkim","zone":"NE","n_cells":49,"label_lon":88.375,"label_lat":27.625},"geometry":{"type":"Polygon","coordinates":[[[88.125,26.625],[87.875,26.625],[87.875,28.125],[88.375,28.125],[88.375,28.375],[88.875,28.375],[88.875,27.125],[89.625,27.125],[89.625,26.875],[89.875,26.875],[89.875,26.125],[89.625,26.125],[89.625,25.875],[89.375,25.875],[89.375,26.125],[88.625,26.125],[88.625,26.375],[88.375,26.375],[88.375,25.875],[87.875,25.875],[87.875,26.125],[88.125,26.125],[88.125,26.625]]]}},{"type":"Feature","id":4,"properties":{"id":"gangetic_wb","name":"Gangetic West Bengal","zone":"East","n_cells":112,"label_lon":87.75,"label_lat":23.75},"geometry":{"type":"Polygon","coordinates":[[[86.625,22.125],[86.625,22.625],[86.375,22.625],[86.375,23.125],[85.875,23.125],[85.875,23.625],[86.125,23.625],[86.125,23.375],[86.375,23.375],[86.375,23.625],[86.875,23.625],[86.875,23.875],[87.375,23.875],[87.375,24.125],[87.625,24.125],[87.625,24.375],[87.875,24.375],[87.875,25.875],[88.375,25.875],[88.375,25.625],[88.875,25.625],[88.875,25.125],[88.375,25.125],[88.375,24.875],[88.125,24.875],[88.125,24.625],[88.625,24.625],[88.625,23.625],[88.875,23.625],[88.875,22.875],[89.125,22.875],[89.125,21.625],[87.375,21.625],[87.375,21.875],[86.875,21.875],[86.875,22.125],[86.625,22.125]]]}},{"type":"Feature","id":5,"properties":{"id":"odisha","name":"Odisha","zone":"East","n_cells":216,"label_lon":84.5,"label_lat":20.25},"geometry":{"type":"MultiPolygon","coordinates":[[[[82.125,18.625],[82.125,19.875],[82.625,19.875],[82.625,20.125],[82.375,20.125],[82.375,20.875],[82.625,20.875],[82.625,21.125],[83.125,21.125],[83.125,21.375],[83.375,21.375],[83.375,21.875],[83.625,21.875],[83.625,22.375],[83.875,22.375],[83.875,22.625],[84.125,22.625],[84.125,22.375],[85.125,22.375],[85.125,22.125],[85.875,22.125],[85.875,22.625],[86.125,22.625],[86.125,22.375],[86.625,22.375],[86.625,22.125],[86.875,22.125],[86.875,21.875],[87.375,21.875],[87.375,21.625],[87.125,21.625],[87.125,21.375],[86.875,21.375],[86.875,20.875],[87.125,20.875],[87.125,20.625],[86.875,20.625],[86.875,20.375],[86.625,20.375],[86.625,20.125],[86.375,20.125],[86.375,19.875],[85.625,19.875],[85.625,19.625],[85.125,19.625],[85.125,19.375],[84.875,19.375],[84.875,19.125],[84.625,19.125],[84.625,18.875],[83.875,18.875],[83.875,19.125],[83.375,19.125],[83.375,18.875],[83.125,18.875],[83.125,18.375],[82.625,18.375],[82.625,18.625],[82.375,18.625],[82.375,17.875],[82.125,17.875],[82.125,18.125],[81.875,18.125],[81.875,17.875],[81.375,17.875],[81.375,18.125],[81.625,18.125],[81.625,18.375],[81.875,18.375],[81.875,18.625],[82.125,18.625]]],[[[82.125,20.125],[82.125,19.875],[81.875,19.875],[81.875,20.125],[82.125,20.125]]]]}},{"type":"Feature","id":6,"properties":{"id":"jharkhand","name":"Jharkhand","zone":"East","n_cells":112,"label_lon":85.25,"label_lat":23.75},"geometry":{"type":"Polygon","coordinates":[[[83.875,23.375],[83.875,23.625],[83.625,23.625],[83.625,24.125],[83.375,24.125],[83.375,24.625],[84.375,24.625],[84.375,24.375],[85.375,24.375],[85.375,24.625],[85.625,24.625],[85.625,24.875],[85.875,24.875],[85.875,24.625],[86.375,24.625],[86.375,24.375],[86.625,24.375],[86.625,24.625],[87.125,24.625],[87.125,25.125],[87.375,25.125],[87.375,25.375],[87.625,25.375],[87.625,25.125],[87.875,25.125],[87.875,24.375],[87.625,24.375],[87.625,24.125],[87.375,24.125],[87.375,23.875],[86.875,23.875],[86.875,23.625],[86.375,23.625],[86.375,23.375],[86.125,23.375],[86.125,23.625],[85.875,23.625],[85.875,23.125],[86.375,23.125],[86.375,22.625],[86.625,22.625],[86.625,22.375],[86.125,22.375],[86.125,22.625],[85.875,22.625],[85.875,22.125],[85.125,22.125],[85.125,22.375],[84.125,22.375],[84.125,23.375],[83.875,23.375]]]}},{"type":"Feature","id":7,"properties":{"id":"bihar","name":"Bihar","zone":"East","n_cells":150,"label_lon":86.0,"label_lat":26.0},"geometry":{"type":"Polygon","coordinates":[[[84.375,24.625],[83.625,24.625],[83.625,24.875],[83.375,24.875],[83.375,25.375],[83.875,25.375],[83.875,25.625],[84.625,25.625],[84.625,25.875],[84.125,25.875],[84.125,26.375],[83.875,26.375],[83.875,26.625],[84.375,26.625],[84.375,26.875],[84.125,26.875],[84.125,27.125],[83.875,27.125],[83.875,27.625],[84.625,27.625],[84.625,27.375],[84.875,27.375],[84.875,27.125],[85.625,27.125],[85.625,26.875],[86.625,26.875],[86.625,26.625],[86.875,26.625],[86.875,26.875],[87.125,26.875],[87.125,26.625],[88.125,26.625],[88.125,26.125],[87.875,26.125],[87.875,25.125],[87.625,25.125],[87.625,25.375],[87.375,25.375],[87.375,25.125],[87.125,25.125],[87.125,24.625],[86.625,24.625],[86.625,24.375],[86.375,24.375],[86.375,24.625],[85.875,24.625],[85.875,24.875],[85.625,24.875],[85.625,24.625],[85.375,24.625],[85.375,24.375],[84.375,24.375],[84.375,24.625]]]}},{"type":"Feature","id":8,"properties":{"id":"east_up","name":"East Uttar Pradesh","zone":"NW","n_cells":211,"label_lon":81.875,"label_lat":26.25},"geometry":{"type":"Polygon","coordinates":[[[79.875,25.875],[79.875,26.125],[79.625,26.125],[79.625,26.625],[79.375,26.625],[79.375,27.125],[79.625,27.125],[79.625,27.375],[80.125,27.375],[80.125,27.625],[80.375,27.625],[80.375,27.875],[80.625,27.875],[80.625,28.375],[80.875,28.375],[80.875,28.625],[81.375,28.625],[81.375,28.375],[81.625,28.375],[81.625,28.125],[82.375,28.125],[82.375,27.875],[82.875,27.875],[82.875,27.625],[83.875,27.625],[83.875,27.125],[84.125,27.125],[84.125,26.875],[84.375,26.875],[84.375,26.625],[83.875,26.625],[83.875,26.375],[84.125,26.375],[84.125,25.875],[84.625,25.875],[84.625,25.625],[83.875,25.625],[83.875,25.375],[83.375,25.375],[83.375,24.875],[83.625,24.875],[83.625,24.625],[83.375,24.625],[83.375,24.125],[83.125,24.125],[83.125,23.875],[82.875,23.875],[82.875,24.125],[82.625,24.125],[82.625,24.625],[82.125,24.625],[82.125,24.875],[81.875,24.875],[81.875,25.125],[81.125,25.125],[81.125,24.875],[80.875,24.875],[80.875,25.125],[80.375,25.125],[80.375,25.375],[80.125,25.375],[80.125,25.875],[79.875,25.875]]]}},{"type":"Feature","id":9,"properties":{"id":"west_up","name":"West Uttar Pradesh","zone":"NW","n_cells":153,"label_lon":78.75,"label_lat":27.5},"geometry":{"type":"Polygon","coordinates":[[[77.375,27.375],[77.375,27.875],[77.625,27.875],[77.625,28.375],[77.375,28.375],[77.375,28.875],[77.125,28.875],[77.125,29.875],[77.375,29.875],[77.375,30.125],[77.625,30.125],[77.625,30.375],[77.875,30.375],[77.875,29.625],[78.125,29.625],[78.125,29.875],[78.375,29.875],[78.375,29.625],[78.625,29.625],[78.625,29.375],[78.875,29.375],[78.875,29.125],[79.375,29.125],[79.375,28.875],[79.875,28.875],[79.875,28.625],[80.125,28.625],[80.125,28.875],[80.875,28.875],[80.875,28.375],[80.625,28.375],[80.625,27.875],[80.375,27.875],[80.375,27.625],[80.125,27.625],[80.125,27.375],[79.625,27.375],[79.625,27.125],[79.375,27.125],[79.375,26.625],[79.625,26.625],[79.625,26.125],[79.875,26.125],[79.875,25.875],[80.125,25.875],[80.125,25.375],[79.875,25.375],[79.875,25.125],[78.875,25.125],[78.875,25.375],[78.625,25.375],[78.625,24.625],[78.875,24.625],[78.875,24.375],[78.125,24.375],[78.125,24.875],[78.375,24.875],[78.375,25.625],[78.625,25.625],[78.625,25.875],[78.875,25.875],[78.875,26.375],[79.125,26.375],[79.125,26.625],[78.875,26.625],[78.875,26.875],[77.625,26.875],[77.625,27.375],[77.375,27.375]]]}},{"type":"Feature","id":10,"properties":{"id":"uttarakhand","name":"Uttarakhand","zone":"NW","n_cells":87,"label_lon":79.5,"label_lat":30.25},"geometry":{"type":"Polygon","coordinates":[[[78.125,29.625],[77.875,29.625],[77.875,30.625],[77.625,30.625],[77.625,30.875],[77.875,30.875],[77.875,31.125],[78.125,31.125],[78.125,31.375],[78.375,31.375],[78.375,31.125],[78.875,31.125],[78.875,31.625],[79.125,31.625],[79.125,31.375],[79.625,31.375],[79.625,31.125],[80.125,31.125],[80.125,30.875],[80.375,30.875],[80.375,30.625],[80.875,30.625],[80.875,30.375],[81.125,30.375],[81.125,30.125],[80.625,30.125],[80.625,29.875],[80.375,29.875],[80.375,29.125],[80.125,29.125],[80.125,28.625],[79.875,28.625],[79.875,28.875],[79.375,28.875],[79.375,29.125],[78.875,29.125],[78.875,29.375],[78.625,29.375],[78.625,29.625],[78.375,29.625],[78.375,29.875],[78.125,29.875],[78.125,29.625]]]}},{"type":"Feature","id":11,"properties":{"id":"haryana_delhi","name":"Haryana, Chandigarh & Delhi","zone":"NW","n_cells":70,"label_lon":76.25,"label_lat":29.25},"geometry":{"type":"MultiPolygon","coordinates":[[[[75.875,27.875],[75.875,28.125],[76.125,28.125],[76.125,27.875],[75.875,27.875]]],[[[76.125,28.375],[75.625,28.375],[75.625,29.125],[75.375,29.125],[75.375,29.375],[74.625,29.375],[74.625,29.625],[74.375,29.625],[74.375,29.875],[75.125,29.875],[75.125,29.625],[75.375,29.625],[75.375,29.875],[76.125,29.875],[76.125,30.125],[76.625,30.125],[76.625,30.375],[76.875,30.375],[76.875,30.625],[76.625,30.625],[76.625,30.875],[77.125,30.875],[77.125,30.375],[77.625,30.375],[77.625,30.125],[77.375,30.125],[77.375,29.875],[77.125,29.875],[77.125,28.875],[77.375,28.875],[77.375,28.375],[77.625,28.375],[77.625,27.875],[77.125,27.875],[77.125,27.625],[76.875,27.625],[76.875,28.125],[76.125,28.125],[76.125,28.375]]]]}},{"type":"Feature","id":12,"properties":{"id":"punjab","name":"Punjab","zone":"NW","n_cells":86,"label_lon":75.375,"label_lat":31.0},"geometry":{"type":"Polygon","coordinates":[[[75.125,29.875],[73.875,29.875],[73.875,30.375],[73.625,30.375],[73.625,30.625],[73.875,30.625],[73.875,30.875],[74.125,30.875],[74.125,31.125],[74.375,31.125],[74.375,32.125],[74.875,32.125],[74.875,32.375],[75.625,32.375],[75.625,32.125],[75.875,32.125],[75.875,31.625],[76.125,31.625],[76.125,31.375],[76.625,31.375],[76.625,30.625],[76.875,30.625],[76.875,30.375],[76.625,30.375],[76.625,30.125],[76.125,30.125],[76.125,29.875],[75.375,29.875],[75.375,29.625],[75.125,29.625],[75.125,29.875]]]}},{"type":"Feature","id":13,"properties":{"id":"himachal_pradesh","name":"Himachal Pradesh","zone":"NW","n_cells":87,"label_lon":77.375,"label_lat":31.875},"geometry":{"type":"Polygon","coordinates":[[[76.125,31.375],[76.125,31.625],[75.875,31.625],[75.875,32.125],[75.625,32.125],[75.625,32.375],[75.875,32.375],[75.875,32.875],[76.125,32.875],[76.125,33.125],[77.125,33.125],[77.125,32.875],[77.875,32.875],[77.875,32.625],[78.375,32.625],[78.375,32.375],[78.625,32.375],[78.625,32.125],[78.875,32.125],[78.875,31.125],[78.375,31.125],[78.375,31.375],[78.125,31.375],[78.125,31.125],[77.875,31.125],[77.875,30.875],[77.625,30.875],[77.625,30.625],[77.875,30.625],[77.875,30.375],[77.125,30.375],[77.125,30.875],[76.625,30.875],[76.625,31.375],[76.125,31.375]]]}},{"type":"Feature","id":14,"properties":{"id":"jk_ladakh","name":"Jammu & Kashmir and Ladakh","zone":"NW","n_cells":410,"label_lon":76.625,"label_lat":34.75},"geometry":{"type":"Polygon","coordinates":[[[73.375,33.125],[73.375,34.375],[73.125,34.375],[73.125,34.875],[73.625,34.875],[73.625,35.375],[73.375,35.375],[73.375,35.625],[72.875,35.625],[72.875,35.875],[72.375,35.875],[72.375,36.625],[72.875,36.625],[72.875,36.875],[73.375,36.875],[73.375,37.125],[74.375,37.125],[74.375,37.375],[75.375,37.375],[75.375,37.125],[75.625,37.125],[75.625,36.875],[75.875,36.875],[75.875,36.625],[76.375,36.625],[76.375,36.375],[76.875,36.375],[76.875,36.125],[77.125,36.125],[77.125,35.875],[77.375,35.875],[77.375,35.625],[77.625,35.625],[77.625,35.875],[78.375,35.875],[78.375,36.125],[80.125,36.125],[80.125,35.875],[80.375,35.875],[80.375,35.375],[80.125,35.375],[80.125,34.625],[79.875,34.625],[79.875,34.375],[79.625,34.375],[79.625,34.125],[79.125,34.125],[79.125,33.625],[79.375,33.625],[79.375,33.125],[79.625,33.125],[79.625,32.625],[79.125,32.625],[79.125,32.375],[78.375,32.375],[78.375,32.625],[77.875,32.625],[77.875,32.875],[77.125,32.875],[77.125,33.125],[76.125,33.125],[76.125,32.875],[75.875,32.875],[75.875,32.375],[74.875,32.375],[74.875,32.125],[74.625,32.125],[74.625,32.625],[74.375,32.625],[74.375,32.875],[73.625,32.875],[73.625,33.125],[73.375,33.125]]]}},{"type":"Feature","id":15,"properties":{"id":"west_rajasthan","name":"West Rajasthan","zone":"NW","n_cells":301,"label_lon":71.875,"label_lat":27.5},"geometry":{"type":"Polygon","coordinates":[[[70.125,25.875],[69.875,25.875],[69.875,26.625],[69.375,26.625],[69.375,27.625],[69.875,27.625],[69.875,28.125],[70.625,28.125],[70.625,27.875],[70.875,27.875],[70.875,28.125],[71.625,28.125],[71.625,28.375],[71.875,28.375],[71.875,28.625],[72.125,28.625],[72.125,29.125],[72.625,29.125],[72.625,29.375],[72.875,29.375],[72.875,29.875],[73.125,29.875],[73.125,30.125],[73.375,30.125],[73.375,30.375],[73.875,30.375],[73.875,29.875],[74.375,29.875],[74.375,29.625],[74.625,29.625],[74.625,29.375],[75.375,29.375],[75.375,29.125],[75.625,29.125],[75.625,28.875],[75.375,28.875],[75.375,28.625],[75.125,28.625],[75.125,28.125],[74.875,28.125],[74.875,27.875],[74.625,27.875],[74.625,27.625],[74.375,27.625],[74.375,27.375],[73.875,27.375],[73.875,27.125],[73.625,27.125],[73.625,26.875],[73.875,26.875],[73.875,25.625],[73.625,25.625],[73.625,25.375],[73.375,25.375],[73.375,25.125],[73.125,25.125],[73.125,24.875],[72.875,24.875],[72.875,24.375],[72.375,24.375],[72.375,24.625],[70.875,24.625],[70.875,24.875],[70.625,24.875],[70.625,25.375],[70.375,25.375],[70.375,25.625],[70.125,25.625],[70.125,25.875]]]}},{"type":"Feature","id":16,"properties":{"id":"east_rajasthan","name":"East Rajasthan","zone":"NW","n_cells":231,"label_lon":75.375,"label_lat":26.0},"geometry":{"type":"MultiPolygon","coordinates":[[[[73.375,23.625],[73.375,24.125],[73.125,24.125],[73.125,24.375],[72.875,24.375],[72.875,24.875],[73.125,24.875],[73.125,25.125],[73.375,25.125],[73.375,25.375],[73.625,25.375],[73.625,25.625],[73.875,25.625],[73.875,26.875],[73.625,26.875],[73.625,27.125],[73.875,27.125],[73.875,27.375],[74.375,27.375],[74.375,27.625],[74.625,27.625],[74.625,27.875],[74.875,27.875],[74.875,28.125],[75.125,28.125],[75.125,28.625],[75.375,28.625],[75.375,28.875],[75.625,28.875],[75.625,28.375],[76.125,28.375],[76.125,28.125],[76.875,28.125],[76.875,27.625],[77.125,27.625],[77.125,27.875],[77.375,27.875],[77.375,27.375],[77.625,27.375],[77.625,26.875],[78.125,26.875],[78.125,26.625],[77.625,26.625],[77.625,26.375],[77.125,26.375],[77.125,26.125],[76.875,26.125],[76.875,25.875],[76.375,25.875],[76.375,25.625],[76.625,25.625],[76.625,25.375],[77.375,25.375],[77.375,25.125],[76.875,25.125],[76.875,24.125],[76.375,24.125],[76.375,24.375],[76.125,24.375],[76.125,24.125],[75.875,24.125],[75.875,24.875],[75.625,24.875],[75.625,24.625],[75.125,24.625],[75.125,24.875],[74.875,24.875],[74.875,24.625],[74.625,24.625],[74.625,24.375],[74.875,24.375],[74.875,23.375],[74.625,23.375],[74.625,23.125],[74.125,23.125],[74.125,23.375],[73.625,23.375],[73.625,23.625],[73.375,23.625]],[[75.875,28.125],[75.875,27.875],[76.125,27.875],[76.125,28.125],[75.875,28.125]],[[75.375,24.875],[75.375,25.125],[75.125,25.125],[75.125,24.875],[75.375,24.875]]],[[[75.875,23.875],[75.625,23.875],[75.625,24.125],[75.875,24.125],[75.875,23.875]]]]}},{"type":"Feature","id":17,"properties":{"id":"west_mp","name":"West Madhya Pradesh","zone":"Central","n_cells":234,"label_lon":76.875,"label_lat":24.0},"geometry":{"type":"MultiPolygon","coordinates":[[[[74.125,21.875],[74.125,22.625],[74.375,22.625],[74.375,23.125],[74.625,23.125],[74.625,23.375],[74.875,23.375],[74.875,24.375],[74.625,24.375],[74.625,24.625],[74.875,24.625],[74.875,24.875],[75.125,24.875],[75.125,24.625],[75.625,24.625],[75.625,24.875],[75.875,24.875],[75.875,24.125],[76.125,24.125],[76.125,24.375],[76.375,24.375],[76.375,24.125],[76.875,24.125],[76.875,25.125],[77.375,25.125],[77.375,25.375],[76.625,25.375],[76.625,25.625],[76.375,25.625],[76.375,25.875],[76.875,25.875],[76.875,26.125],[77.125,26.125],[77.125,26.375],[77.625,26.375],[77.625,26.625],[78.125,26.625],[78.125,26.875],[78.875,26.875],[78.875,26.625],[79.125,26.625],[79.125,26.375],[78.875,26.375],[78.875,25.875],[78.625,25.875],[78.625,25.625],[78.375,25.625],[78.375,24.875],[78.125,24.875],[78.125,24.625],[77.875,24.625],[77.875,23.625],[78.125,23.625],[78.125,23.375],[78.375,23.375],[78.375,23.125],[78.625,23.125],[78.625,22.625],[78.375,22.625],[78.375,22.375],[78.125,22.375],[78.125,21.875],[77.875,21.875],[77.875,21.625],[77.625,21.625],[77.625,21.375],[77.375,21.375],[77.375,21.625],[76.875,21.625],[76.875,21.375],[76.625,21.375],[76.625,21.125],[76.125,21.125],[76.125,21.375],[75.125,21.375],[75.125,21.625],[74.625,21.625],[74.625,21.875],[74.125,21.875]],[[75.625,24.125],[75.625,23.875],[75.875,23.875],[75.875,24.125],[75.625,24.125]]],[[[75.375,24.875],[75.125,24.875],[75.125,25.125],[75.375,25.125],[75.375,24.875]]],[[[78.875,25.125],[78.625,25.125],[78.625,25.375],[78.875,25.375],[78.875,25.125]]]]}},{"type":"Feature","id":18,"properties":{"id":"east_mp","name":"East Madhya Pradesh","zone":"Central","n_cells":206,"label_lon":80.0,"label_lat":23.5},"geometry":{"type":"Polygon","coordinates":[[[78.125,22.375],[78.375,22.375],[78.375,22.625],[78.625,22.625],[78.625,23.125],[78.375,23.125],[78.375,23.375],[78.125,23.375],[78.125,23.625],[77.875,23.625],[77.875,24.625],[78.125,24.625],[78.125,24.375],[78.875,24.375],[78.875,24.625],[78.625,24.625],[78.625,25.125],[79.875,25.125],[79.875,25.375],[80.375,25.375],[80.375,25.125],[80.875,25.125],[80.875,24.875],[81.125,24.875],[81.125,25.125],[81.875,25.125],[81.875,24.875],[82.125,24.875],[82.125,24.625],[82.625,24.625],[82.625,24.125],[82.875,24.125],[82.875,23.875],[81.625,23.875],[81.625,23.625],[81.875,23.625],[81.875,23.375],[82.125,23.375],[82.125,23.125],[81.875,23.125],[81.875,22.625],[81.625,22.625],[81.625,22.375],[81.125,22.375],[81.125,22.125],[80.875,22.125],[80.875,21.625],[80.625,21.625],[80.625,21.375],[80.375,21.375],[80.375,21.625],[78.875,21.625],[78.875,21.375],[78.625,21.375],[78.625,21.625],[78.125,21.625],[78.125,21.375],[77.625,21.375],[77.625,21.625],[77.875,21.625],[77.875,21.875],[78.125,21.875],[78.125,22.375]]]}},{"type":"Feature","id":19,"properties":{"id":"gujarat_region","name":"Gujarat Region","zone":"Central","n_cells":131,"label_lon":73.0,"label_lat":22.5},"geometry":{"type":"Polygon","coordinates":[[[71.375,23.125],[71.375,23.625],[71.125,23.625],[71.125,23.875],[70.875,23.875],[70.875,24.375],[70.625,24.375],[70.625,24.625],[72.375,24.625],[72.375,24.375],[73.125,24.375],[73.125,24.125],[73.375,24.125],[73.375,23.625],[73.625,23.625],[73.625,23.375],[74.125,23.375],[74.125,23.125],[74.375,23.125],[74.375,22.625],[74.125,22.625],[74.125,21.875],[73.875,21.875],[73.875,21.625],[74.375,21.625],[74.375,21.375],[73.875,21.375],[73.875,20.625],[73.375,20.625],[73.375,20.125],[72.625,20.125],[72.625,21.125],[72.375,21.125],[72.375,21.375],[72.625,21.375],[72.625,21.625],[72.875,21.625],[72.875,21.875],[72.625,21.875],[72.625,22.375],[71.875,22.375],[71.875,22.625],[71.625,22.625],[71.625,23.125],[71.375,23.125]]]}},{"type":"Feature","id":20,"properties":{"id":"saurashtra_kutch","name":"Saurashtra & Kutch","zone":"Central","n_cells":175,"label_lon":70.625,"label_lat":22.75},"geometry":{"type":"Polygon","coordinates":[[[68.625,22.125],[68.625,22.625],[69.625,22.625],[69.625,22.875],[68.625,22.875],[68.625,23.125],[68.375,23.125],[68.375,23.375],[68.125,23.375],[68.125,23.625],[67.875,23.625],[67.875,24.125],[68.625,24.125],[68.625,24.625],[68.875,24.625],[68.875,24.375],[69.125,24.375],[69.125,24.625],[69.625,24.625],[69.625,24.375],[69.875,24.375],[69.875,24.625],[70.625,24.625],[70.625,24.375],[70.875,24.375],[70.875,23.875],[71.125,23.875],[71.125,23.625],[71.375,23.625],[71.375,23.125],[71.625,23.125],[71.625,22.625],[71.875,22.625],[71.875,22.375],[72.625,22.375],[72.625,21.875],[72.875,21.875],[72.875,21.625],[72.625,21.625],[72.625,21.375],[72.375,21.375],[72.375,21.625],[72.125,21.625],[72.125,21.125],[71.625,21.125],[71.625,20.875],[71.125,20.875],[71.125,20.625],[70.625,20.625],[70.625,20.875],[69.875,20.875],[69.875,21.125],[69.625,21.125],[69.625,21.375],[69.375,21.375],[69.375,21.625],[69.125,21.625],[69.125,21.875],[68.875,21.875],[68.875,22.125],[68.625,22.125]]]}},{"type":"Feature","id":21,"properties":{"id":"konkan_goa","name":"Konkan & Goa","zone":"Central","n_cells":61,"label_lon":73.375,"label_lat":17.5},"geometry":{"type":"Polygon","coordinates":[[[73.625,16.375],[73.875,16.375],[73.875,16.125],[74.375,16.125],[74.375,15.625],[74.125,15.625],[74.125,15.375],[74.375,15.375],[74.375,15.125],[74.125,15.125],[74.125,14.875],[73.875,14.875],[73.875,15.125],[73.625,15.125],[73.625,15.625],[73.375,15.625],[73.375,16.125],[73.125,16.125],[73.125,17.375],[72.875,17.375],[72.875,18.125],[72.625,18.125],[72.625,19.625],[72.375,19.625],[72.375,20.125],[72.875,20.125],[72.875,19.875],[73.125,19.875],[73.125,19.625],[73.375,19.625],[73.375,19.375],[73.625,19.375],[73.625,18.875],[73.375,18.875],[73.375,17.875],[73.625,17.875],[73.625,17.625],[73.875,17.625],[73.875,16.875],[73.625,16.875],[73.625,16.375]]]}},{"type":"Feature","id":22,"properties":{"id":"madhya_maharashtra","name":"Madhya Maharashtra","zone":"Central","n_cells":163,"label_lon":74.375,"label_lat":19.0},"geometry":{"type":"Polygon","coordinates":[[[73.875,16.875],[73.875,17.625],[73.625,17.625],[73.625,17.875],[73.375,17.875],[73.375,18.875],[73.625,18.875],[73.625,19.375],[73.375,19.375],[73.375,19.625],[73.125,19.625],[73.125,19.875],[72.875,19.875],[72.875,20.125],[73.375,20.125],[73.375,20.625],[73.875,20.625],[73.875,21.375],[74.375,21.375],[74.375,21.625],[73.875,21.625],[73.875,21.875],[74.625,21.875],[74.625,21.625],[75.125,21.625],[75.125,21.375],[76.125,21.375],[76.125,21.125],[76.375,21.125],[76.375,20.625],[76.125,20.625],[76.125,20.375],[75.125,20.375],[75.125,20.625],[74.625,20.625],[74.625,19.625],[75.125,19.625],[75.125,19.375],[75.375,19.375],[75.375,19.125],[75.125,19.125],[75.125,18.375],[75.875,18.375],[75.875,18.125],[76.375,18.125],[76.375,17.375],[75.625,17.375],[75.625,16.875],[74.875,16.875],[74.875,16.625],[74.375,16.625],[74.375,16.125],[73.875,16.125],[73.875,16.375],[73.625,16.375],[73.625,16.875],[73.875,16.875]]]}},{"type":"Feature","id":23,"properties":{"id":"marathwada","name":"Marathwada","zone":"Central","n_cells":88,"label_lon":76.625,"label_lat":19.25},"geometry":{"type":"Polygon","coordinates":[[[75.375,19.375],[75.125,19.375],[75.125,19.625],[74.625,19.625],[74.625,20.625],[75.125,20.625],[75.125,20.375],[76.125,20.375],[76.125,20.125],[76.375,20.125],[76.375,19.875],[77.625,19.875],[77.625,19.625],[78.125,19.625],[78.125,19.375],[77.875,19.375],[77.875,18.625],[77.625,18.625],[77.625,18.375],[77.125,18.375],[77.125,18.125],[76.875,18.125],[76.875,17.875],[76.375,17.875],[76.375,18.125],[75.875,18.125],[75.875,18.375],[75.125,18.375],[75.125,19.125],[75.375,19.125],[75.375,19.375]]]}},{"type":"Feature","id":24,"properties":{"id":"vidarbha","name":"Vidarbha","zone":"Central","n_cells":131,"label_lon":78.25,"label_lat":20.25},"geometry":{"type":"Polygon","coordinates":[[[76.375,19.875],[76.375,20.125],[76.125,20.125],[76.125,20.625],[76.375,20.625],[76.375,21.125],[76.625,21.125],[76.625,21.375],[76.875,21.375],[76.875,21.625],[77.375,21.625],[77.375,21.375],[78.125,21.375],[78.125,21.625],[78.625,21.625],[78.625,21.375],[78.875,21.375],[78.875,21.625],[80.375,21.625],[80.375,21.375],[80.625,21.375],[80.625,21.125],[80.375,21.125],[80.375,20.875],[80.625,20.875],[80.625,20.375],[80.375,20.375],[80.375,20.125],[80.625,20.125],[80.625,19.625],[80.875,19.625],[80.875,19.375],[80.375,19.375],[80.375,18.625],[80.125,18.625],[80.125,18.875],[79.875,18.875],[79.875,19.625],[78.875,19.625],[78.875,19.875],[78.375,19.875],[78.375,19.375],[78.125,19.375],[78.125,19.625],[77.625,19.625],[77.625,19.875],[76.375,19.875]]]}},{"type":"Feature","id":25,"properties":{"id":"chhattisgarh","name":"Chhattisgarh","zone":"Central","n_cells":185,"label_lon":81.5,"label_lat":21.0},"geometry":{"type":"Polygon","coordinates":[[[80.625,18.375],[80.625,18.625],[80.375,18.625],[80.375,19.375],[80.875,19.375],[80.875,19.625],[80.625,19.625],[80.625,20.125],[80.375,20.125],[80.375,20.375],[80.625,20.375],[80.625,20.875],[80.375,20.875],[80.375,21.125],[80.625,21.125],[80.625,21.625],[80.875,21.625],[80.875,22.125],[81.125,22.125],[81.125,22.375],[81.625,22.375],[81.625,22.625],[81.875,22.625],[81.875,23.125],[82.125,23.125],[82.125,23.375],[81.875,23.375],[81.875,23.625],[81.625,23.625],[81.625,23.875],[83.125,23.875],[83.125,24.125],[83.625,24.125],[83.625,23.625],[83.875,23.625],[83.875,23.375],[84.125,23.375],[84.125,22.625],[83.875,22.625],[83.875,22.375],[83.625,22.375],[83.625,21.875],[83.375,21.875],[83.375,21.375],[83.125,21.375],[83.125,21.125],[82.625,21.125],[82.625,20.875],[82.375,20.875],[82.375,20.125],[82.625,20.125],[82.625,19.875],[82.125,19.875],[82.125,18.625],[81.875,18.625],[81.875,18.375],[81.625,18.375],[81.625,18.125],[81.375,18.125],[81.375,17.875],[80.875,17.875],[80.875,18.375],[80.625,18.375]],[[82.125,20.125],[81.875,20.125],[81.875,19.875],[82.125,19.875],[82.125,20.125]]]}},{"type":"Feature","id":26,"properties":{"id":"coastal_ap","name":"Coastal Andhra Pradesh & Yanam","zone":"South","n_cells":117,"label_lon":80.625,"label_lat":16.5},"geometry":{"type":"MultiPolygon","coordinates":[[[[79.375,14.125],[79.375,15.125],[79.125,15.125],[79.125,16.625],[80.125,16.625],[80.125,17.125],[81.125,17.125],[81.125,17.375],[81.375,17.375],[81.375,17.625],[81.625,17.625],[81.625,17.875],[81.875,17.875],[81.875,18.125],[82.125,18.125],[82.125,17.875],[82.375,17.875],[82.375,18.625],[82.625,18.625],[82.625,18.375],[83.125,18.375],[83.125,18.875],[83.375,18.875],[83.375,19.125],[83.875,19.125],[83.875,18.875],[84.375,18.875],[84.375,18.625],[84.125,18.625],[84.125,18.375],[83.875,18.375],[83.875,18.125],[83.625,18.125],[83.625,17.875],[83.375,17.875],[83.375,17.625],[82.875,17.625],[82.875,17.375],[82.625,17.375],[82.625,17.125],[82.375,17.125],[82.375,16.625],[82.125,16.625],[82.125,16.375],[81.125,16.375],[81.125,15.875],[80.875,15.875],[80.875,15.625],[80.625,15.625],[80.625,15.875],[80.375,15.875],[80.375,15.625],[80.125,15.625],[80.125,13.875],[79.875,13.875],[79.875,14.125],[79.375,14.125]]],[[[80.375,13.875],[80.375,13.625],[80.125,13.625],[80.125,13.875],[80.375,13.875]]]]}},{"type":"Feature","id":27,"properties":{"id":"rayalaseema","name":"Rayalaseema","zone":"South","n_cells":103,"label_lon":78.125,"label_lat":14.625},"geometry":{"type":"MultiPolygon","coordinates":[[[[76.875,13.875],[76.875,14.875],[76.625,14.875],[76.625,15.125],[77.125,15.125],[77.125,15.875],[78.375,15.875],[78.375,16.125],[79.125,16.125],[79.125,15.125],[79.375,15.125],[79.375,14.125],[79.875,14.125],[79.875,13.875],[80.125,13.875],[80.125,13.625],[80.375,13.625],[80.375,13.375],[79.875,13.375],[79.875,13.125],[79.625,13.125],[79.625,13.375],[79.375,13.375],[79.375,13.125],[78.625,13.125],[78.625,13.375],[78.375,13.375],[78.375,13.625],[78.125,13.625],[78.125,13.875],[77.625,13.875],[77.625,13.625],[77.375,13.625],[77.375,13.875],[76.875,13.875]],[[77.125,14.375],[77.125,14.125],[77.375,14.125],[77.375,14.375],[77.125,14.375]]],[[[78.375,12.875],[78.375,13.125],[78.625,13.125],[78.625,12.625],[78.125,12.625],[78.125,12.875],[78.375,12.875]]]]}},{"type":"Feature","id":28,"properties":{"id":"telangana","name":"Telangana","zone":"South","n_cells":157,"label_lon":79.25,"label_lat":18.125},"geometry":{"type":"Polygon","coordinates":[[[77.375,15.875],[77.375,17.375],[77.625,17.375],[77.625,18.625],[77.875,18.625],[77.875,19.375],[78.375,19.375],[78.375,19.875],[78.875,19.875],[78.875,19.625],[79.875,19.625],[79.875,18.875],[80.125,18.875],[80.125,18.625],[80.625,18.625],[80.625,18.375],[80.875,18.375],[80.875,17.875],[81.625,17.875],[81.625,17.625],[81.375,17.625],[81.375,17.375],[81.125,17.375],[81.125,17.125],[80.125,17.125],[80.125,16.625],[79.125,16.625],[79.125,16.125],[78.375,16.125],[78.375,15.875],[77.375,15.875]]]}},{"type":"Feature","id":29,"properties":{"id":"tamil_nadu","name":"Tamil Nadu, Puducherry & Karaikal","zone":"South","n_cells":175,"label_lon":78.375,"label_lat":10.625},"geometry":{"type":"Polygon","coordinates":[[[77.375,8.625],[77.125,8.625],[77.125,9.125],[77.375,9.125],[77.375,9.625],[77.125,9.625],[77.125,10.125],[76.875,10.125],[76.875,10.875],[76.625,10.875],[76.625,11.125],[76.375,11.125],[76.375,11.625],[76.875,11.625],[76.875,11.875],[77.625,11.875],[77.625,12.125],[77.375,12.125],[77.375,12.375],[77.625,12.375],[77.625,12.625],[77.875,12.625],[77.875,12.875],[78.125,12.875],[78.125,12.625],[78.625,12.625],[78.625,13.125],[79.375,13.125],[79.375,13.375],[79.625,13.375],[79.625,13.125],[79.875,13.125],[79.875,13.375],[80.375,13.375],[80.375,13.125],[80.125,13.125],[80.125,12.375],[79.875,12.375],[79.875,10.375],[79.375,10.375],[79.375,10.125],[79.125,10.125],[79.125,9.875],[78.875,9.875],[78.875,9.625],[79.375,9.625],[79.375,9.125],[79.125,9.125],[79.125,9.375],[78.875,9.375],[78.875,9.125],[78.125,9.125],[78.125,8.375],[77.875,8.375],[77.875,8.125],[77.125,8.125],[77.125,8.375],[77.375,8.375],[77.375,8.625]],[[77.375,10.125],[77.375,10.375],[77.125,10.375],[77.125,10.125],[77.375,10.125]]]}},{"type":"Feature","id":30,"properties":{"id":"coastal_karnataka","name":"Coastal Karnataka","zone":"South","n_cells":32,"label_lon":74.625,"label_lat":14.0},"geometry":{"type":"MultiPolygon","coordinates":[[[[74.375,13.125],[74.375,14.125],[74.125,14.125],[74.125,15.125],[74.625,15.125],[74.625,14.875],[74.875,14.875],[74.875,13.875],[75.125,13.875],[75.125,13.625],[75.375,13.625],[75.375,12.625],[74.625,12.625],[74.625,13.125],[74.375,13.125]]],[[[75.625,12.625],[75.625,12.125],[75.375,12.125],[75.375,12.625],[75.625,12.625]]]]}},{"type":"Feature","id":31,"properties":{"id":"nik","name":"North Interior Karnataka","zone":"South","n_cells":119,"label_lon":75.875,"label_lat":16.25},"geometry":{"type":"MultiPolygon","coordinates":[[[[74.625,14.875],[74.625,15.125],[74.375,15.125],[74.375,15.375],[74.125,15.375],[74.125,15.625],[74.375,15.625],[74.375,16.625],[74.875,16.625],[74.875,16.875],[75.625,16.875],[75.625,17.375],[76.375,17.375],[76.375,17.875],[76.875,17.875],[76.875,18.125],[77.125,18.125],[77.125,18.375],[77.625,18.375],[77.625,17.375],[77.375,17.375],[77.375,15.875],[77.125,15.875],[77.125,15.125],[76.625,15.125],[76.625,14.875],[76.125,14.875],[76.125,15.125],[75.875,15.125],[75.875,14.875],[75.375,14.875],[75.375,14.625],[74.875,14.625],[74.875,14.875],[74.625,14.875]]],[[[76.875,14.875],[76.875,14.625],[76.625,14.625],[76.625,14.875],[76.875,14.875]]]]}},{"type":"Feature","id":32,"properties":{"id":"sik","name":"South Interior Karnataka","zone":"South","n_cells":113,"label_lon":76.875,"label_lat":13.5},"geometry":{"type":"MultiPolygon","coordinates":[[[[75.875,12.125],[75.625,12.125],[75.625,12.625],[75.375,12.625],[75.375,13.625],[75.125,13.625],[75.125,13.875],[74.875,13.875],[74.875,14.625],[75.375,14.625],[75.375,14.875],[75.875,14.875],[75.875,15.125],[76.125,15.125],[76.125,14.875],[76.625,14.875],[76.625,14.625],[76.875,14.625],[76.875,13.875],[77.375,13.875],[77.375,13.625],[77.625,13.625],[77.625,13.875],[78.125,13.875],[78.125,13.625],[78.375,13.625],[78.375,13.375],[78.625,13.375],[78.625,13.125],[78.375,13.125],[78.375,12.875],[77.875,12.875],[77.875,12.625],[77.625,12.625],[77.625,12.375],[77.375,12.375],[77.375,12.125],[77.625,12.125],[77.625,11.875],[76.875,11.875],[76.875,11.625],[76.375,11.625],[76.375,11.875],[75.875,11.875],[75.875,12.125]]],[[[77.375,14.375],[77.375,14.125],[77.125,14.125],[77.125,14.375],[77.375,14.375]]]]}},{"type":"Feature","id":33,"properties":{"id":"kerala_mahe","name":"Kerala & Mahe","zone":"South","n_cells":67,"label_lon":76.375,"label_lat":10.375},"geometry":{"type":"MultiPolygon","coordinates":[[[[75.625,10.625],[75.625,11.375],[75.375,11.375],[75.375,11.625],[75.125,11.625],[75.125,11.875],[74.875,11.875],[74.875,12.625],[75.375,12.625],[75.375,12.125],[75.875,12.125],[75.875,11.875],[76.375,11.875],[76.375,11.125],[76.625,11.125],[76.625,10.875],[76.875,10.875],[76.875,10.125],[77.125,10.125],[77.125,9.625],[77.375,9.625],[77.375,9.125],[77.125,9.125],[77.125,8.625],[77.375,8.625],[77.375,8.375],[77.125,8.375],[77.125,8.125],[76.875,8.125],[76.875,8.375],[76.625,8.375],[76.625,8.625],[76.375,8.625],[76.375,9.125],[76.125,9.125],[76.125,9.875],[75.875,9.875],[75.875,10.625],[75.625,10.625]]],[[[77.125,10.375],[77.375,10.375],[77.375,10.125],[77.125,10.125],[77.125,10.375]]]]}}],"attribution":"Subdivisions derived from the IMD 0.25 deg gridded-rainfall land mask; state lines: Natural Earth 50m admin-1."}